[{"OBJECT_NAME":"JILIN-1 GAOFEN 03D08","OBJECT_ID":"2022-155A","EPOCH":"2026-03-09T23:19:58.131840","MEAN_MOTION":15.549418,"ECCENTRICITY":0.00037458,"INCLINATION":97.6053,"RA_OF_ASC_NODE":207.2887,"ARG_OF_PERICENTER":356.2753,"MEAN_ANOMALY":3.8472,"EPHEMERIS_TYPE":0,"CLASSIFICATION_TYPE":"U","NORAD_CAT_ID":54251,"ELEMENT_SET_NO":999,"REV_AT_EPOCH":18435,"BSTAR":0.00076641112,"MEAN_MOTION_DOT":0.00051434,"MEAN_MOTION_DDOT":0},{"OBJECT_NAME":"IPERDRONE.0","OBJECT_ID":"2024-149BE","EPOCH":"2026-03-09T17:09:53.298144","MEAN_MOTION":15.54688406,"ECCENTRICITY":0.00029889,"INCLINATION":97.3808,"RA_OF_ASC_NODE":157.9725,"ARG_OF_PERICENTER":236.7753,"MEAN_ANOMALY":123.3215,"EPHEMERIS_TYPE":0,"CLASSIFICATION_TYPE":"U","NORAD_CAT_ID":60520,"ELEMENT_SET_NO":999,"REV_AT_EPOCH":8740,"BSTAR":0.00083831703,"MEAN_MOTION_DOT":0.00055777,"MEAN_MOTION_DDOT":0}]
